{"type": "FeatureCollection", "features": [ {"type": "Feature", "properties": {"norad_id": 32234, "name": "FENGYUN 1C DEB", "group": "fengyun-1c-debris", "lat": -60.08065124784371, "lon": -157.46285586030743, "alt_km": 877.3308274999235, "timestamp": "2025-12-02T19:35:50.842061+00:00", "meta": {"OBJECT_NAME": "FENGYUN 1C DEB", "OBJECT_ID": "1999-025CWG", "EPOCH": "2025-12-02T00:56:11.963040", "MEAN_MOTION": 13.94063848, "ECCENTRICITY": 0.01378096, "INCLINATION": 98.5293, "RA_OF_ASC_NODE": 186.7032, "ARG_OF_PERICENTER": 5.6343, "MEAN_ANOMALY": 354.6332, "EPHEMERIS_TYPE": 0, "CLASSIFICATION_TYPE": "U", "NORAD_CAT_ID": 32234, "ELEMENT_SET_NO": 999, "REV_AT_EPOCH": 93060, "BSTAR": 0.00151318, "MEAN_MOTION_DOT": 2.128e-05, "MEAN_MOTION_DDOT": 0}, "tle": {"line1": "1 32234U 99025CWG 25336.03902735  .00002128  00000+0  15132-2 0  9993", "line2": "2 32234  98.5293 186.7032 0137809   5.6343 354.6332 13.94063848930608"}}, "geometry": {"type": "Point", "coordinates": [-157.46285586030743, -60.08065124784371]}}, {"type": "Feature", "properties": {"norad_id": 32241, "name": "FENGYUN 1C DEB", "group": "fengyun-1c-debris", "lat": 0.7021682611978454, "lon": -174.01978542214164, "alt_km": 767.1352686033588, "timestamp": "2025-12-02T19:35:50.842071+00:00", "meta": {"OBJECT_NAME": "FENGYUN 1C DEB", "OBJECT_ID": "1999-025CWP", "EPOCH": "2025-11-30T21:21:41.757696", "MEAN_MOTION": 14.28586446, "ECCENTRICITY": 0.01459462, "INCLINATION": 99.0795, "RA_OF_ASC_NODE": 3.8635, "ARG_OF_PERICENTER": 257.6893, "MEAN_ANOMALY": 100.7915, "EPHEMERIS_TYPE": 0, "CLASSIFICATION_TYPE": "U", "NORAD_CAT_ID": 32241, "ELEMENT_SET_NO": 999, "REV_AT_EPOCH": 93654, "BSTAR": 0.0016863923, "MEAN_MOTION_DOT": 4.696e-05, "MEAN_MOTION_DDOT": 0}, "tle": {"line1": "1 32241U 99025CWP 25334.89006664  .00004696  00000+0  16864-2 0  9994", "line2": "2 32241  99.0795   3.8635 0145946 257.6893 100.7915 14.28586446936545"}}, "geometry": {"type": "Point", "coordinates": [-174.01978542214164, 0.7021682611978454]}}, {"type": "Feature", "properties": {"norad_id": 32243, "name": "FENGYUN 1C DEB", "group": "fengyun-1c-debris", "lat": -81.71809310552831, "lon": 90.08135883409112, "alt_km": 975.6502127323984, "timestamp": "2025-12-02T19:35:50.842081+00:00", "meta": {"OBJECT_NAME": "FENGYUN 1C DEB", "OBJECT_ID": "1999-025CWR", "EPOCH": "2025-11-22T20:39:35.073504", "MEAN_MOTION": 14.04389383, "ECCENTRICITY": 0.02701437, "INCLINATION": 98.2706, "RA_OF_ASC_NODE": 353.2268, "ARG_OF_PERICENTER": 179.9456, "MEAN_ANOMALY": 180.1789, "EPHEMERIS_TYPE": 0, "CLASSIFICATION_TYPE": "U", "NORAD_CAT_ID": 32243, "ELEMENT_SET_NO": 999, "REV_AT_EPOCH": 93309, "BSTAR": 0.0019811585, "MEAN_MOTION_DOT": 4.332e-05, "MEAN_MOTION_DDOT": 0}, "tle": {"line1": "1 32243U 99025CWR 25326.86082261  .00004332  00000+0  19812-2 0  9994", "line2": "2 32243  98.2706 353.2268 0270143 179.9456 180.1789 14.04389383933096"}}, "geometry": {"type": "Point", "coordinates": [90.08135883409112, -81.71809310552831]}}, {"type": "Feature", "properties": {"norad_id": 32245, "name": "FENGYUN 1C DEB", "group": "fengyun-1c-debris", "lat": 60.08037717086495, "lon": 7.497849783965635, "alt_km": 651.9028463065079, "timestamp": "2025-12-02T19:35:50.842092+00:00", "meta": {"OBJECT_NAME": "FENGYUN 1C DEB", "OBJECT_ID": "1999-025CWT", "EPOCH": "2025-11-30T06:53:48.437088", "MEAN_MOTION": 14.76630741, "ECCENTRICITY": 0.00984246, "INCLINATION": 98.6553, "RA_OF_ASC_NODE": 169.4391, "ARG_OF_PERICENTER": 21.1118, "MEAN_ANOMALY": 339.4109, "EPHEMERIS_TYPE": 0, "CLASSIFICATION_TYPE": "U", "NORAD_CAT_ID": 32245, "ELEMENT_SET_NO": 999, "REV_AT_EPOCH": 65922, "BSTAR": 0.0012142086, "MEAN_MOTION_DOT": 9.134e-05, "MEAN_MOTION_DDOT": 0}, "tle": {"line1": "1 32245U 99025CWT 25334.28736617  .00009134  00000+0  12142-2 0  9996", "line2": "2 32245  98.6553 169.4391 0098424  21.1118 339.4109 14.76630741659220"}}, "geometry": {"type": "Point", "coordinates": [7.497849783965635, 60.08037717086495]}}, {"type": "Feature", "properties": {"norad_id": 32304, "name": "FENGYUN 1C DEB", "group": "fengyun-1c-debris", "lat": -21.881143234719627, "lon": -65.94558838528066, "alt_km": 723.9378696358453, "timestamp": "2025-12-02T19:35:50.842101+00:00", "meta": {"OBJECT_NAME": "FENGYUN 1C DEB", "OBJECT_ID": "1999-025CWV", "EPOCH": "2025-11-28T03:06:40.881312", "MEAN_MOTION": 14.50323858, "ECCENTRICITY": 0.00496922, "INCLINATION": 99.3962, "RA_OF_ASC_NODE": 285.0171, "ARG_OF_PERICENTER": 270.8961, "MEAN_ANOMALY": 88.6537, "EPHEMERIS_TYPE": 0, "CLASSIFICATION_TYPE": "U", "NORAD_CAT_ID": 32304, "ELEMENT_SET_NO": 999, "REV_AT_EPOCH": 56061, "BSTAR": 0.0016059573, "MEAN_MOTION_DOT": 6.31e-05, "MEAN_MOTION_DDOT": 0}, "tle": {"line1": "1 32304U 99025CWV 25332.12963983  .00006310  00000+0  16060-2 0  9997", "line2": "2 32304  99.3962 285.0171 0049692 270.8961  88.6537 14.50323858560613"}}, "geometry": {"type": "Point", "coordinates": [-65.94558838528066, -21.881143234719627]}}, {"type": "Feature", "properties": {"norad_id": 32308, "name": "FENGYUN 1C DEB", "group": "fengyun-1c-debris", "lat": 45.51878789732914, "lon": 23.123710316071424, "alt_km": 812.6258599750508, "timestamp": "2025-12-02T19:35:50.842112+00:00", "meta": {"OBJECT_NAME": "FENGYUN 1C DEB", "OBJECT_ID": "1999-025CWZ", "EPOCH": "2025-12-02T02:17:39.654240", "MEAN_MOTION": 14.05409703, "ECCENTRICITY": 0.01097538, "INCLINATION": 97.776, "RA_OF_ASC_NODE": 30.5028, "ARG_OF_PERICENTER": 91.3374, "MEAN_ANOMALY": 270.0373, "EPHEMERIS_TYPE": 0, "CLASSIFICATION_TYPE": "U", "NORAD_CAT_ID": 32308, "ELEMENT_SET_NO": 999, "REV_AT_EPOCH": 65262, "BSTAR": 0.0019441653, "MEAN_MOTION_DOT": 3.295e-05, "MEAN_MOTION_DDOT": 0}, "tle": {"line1": "1 32308U 99025CWZ 25336.09559785  .00003295  00000+0  19442-2 0  9998", "line2": "2 32308  97.7760  30.5028 0109753  91.3374 270.0373 14.05409703652620"}}, "geometry": {"type": "Point", "coordinates": [23.123710316071424, 45.51878789732914]}}, {"type": "Feature", "properties": {"norad_id": 32314, "name": "FENGYUN 1C DEB", "group": "fengyun-1c-debris", "lat": 30.515881962882183, "lon": -93.87777708157164, "alt_km": 549.5287660341282, "timestamp": "2025-12-02T19:35:50.842123+00:00", "meta": {"OBJECT_NAME": "FENGYUN 1C DEB", "OBJECT_ID": "1999-025CXF", "EPOCH": "2025-11-26T00:32:23.011584", "MEAN_MOTION": 14.78803857, "ECCENTRICITY": 0.01504609, "INCLINATION": 98.8637, "RA_OF_ASC_NODE": 73.3622, "ARG_OF_PERICENTER": 210.3972, "MEAN_ANOMALY": 148.8449, "EPHEMERIS_TYPE": 0, "CLASSIFICATION_TYPE": "U", "NORAD_CAT_ID": 32314, "ELEMENT_SET_NO": 999, "REV_AT_EPOCH": 97183, "BSTAR": 0.0018187016, "MEAN_MOTION_DOT": 0.00016148, "MEAN_MOTION_DDOT": 0}, "tle": {"line1": "1 32314U 99025CXF 25330.02248856  .00016148  00000+0  18187-2 0  9992", "line2": "2 32314  98.8637  73.3622 0150460 210.3972 148.8449 14.78803857971836"}}, "geometry": {"type": "Point", "coordinates": [-93.87777708157164, 30.515881962882183]}}, {"type": "Feature", "properties": {"norad_id": 32315, "name": "FENGYUN 1C DEB", "group": "fengyun-1c-debris", "lat": -47.722376334604434, "lon": 130.95259375668184, "alt_km": 1187.7313991536466, "timestamp": "2025-12-02T19:35:50.842133+00:00", "meta": {"OBJECT_NAME": "FENGYUN 1C DEB", "OBJECT_ID": "1999-025CXG", "EPOCH": "2025-11-20T16:04:27.676128", "MEAN_MOTION": 13.66155502, "ECCENTRICITY": 0.02289149, "INCLINATION": 100.8052, "RA_OF_ASC_NODE": 105.2905, "ARG_OF_PERICENTER": 168.6, "MEAN_ANOMALY": 192.0449, "EPHEMERIS_TYPE": 0, "CLASSIFICATION_TYPE": "U", "NORAD_CAT_ID": 32315, "ELEMENT_SET_NO": 999, "REV_AT_EPOCH": 60787, "BSTAR": 0.00024184327, "MEAN_MOTION_DOT": 1.85e-06, "MEAN_MOTION_DDOT": 0}, "tle": {"line1": "1 32315U 99025CXG 25324.66976477  .00000185  00000+0  24184-3 0  9992", "line2": "2 32315 100.8052 105.2905 0228914 168.6000 192.0449 13.66155502607872"}}, "geometry": {"type": "Point", "coordinates": [130.95259375668184, -47.722376334604434]}}, {"type": "Feature", "properties": {"norad_id": 32316, "name": "FENGYUN 1C DEB", "group": "fengyun-1c-debris", "lat": 60.95805894571317, "lon": -15.651891288812259, "alt_km": 705.6322028586956, "timestamp": "2025-12-02T19:35:50.842143+00:00", "meta": {"OBJECT_NAME": "FENGYUN 1C DEB", "OBJECT_ID": "1999-025CXH", "EPOCH": "2025-12-01T00:34:27.696288", "MEAN_MOTION": 14.51606127, "ECCENTRICITY": 0.00267894, "INCLINATION": 99.5306, "RA_OF_ASC_NODE": 359.9291, "ARG_OF_PERICENTER": 4.924, "MEAN_ANOMALY": 54.6191, "EPHEMERIS_TYPE": 0, "CLASSIFICATION_TYPE": "U", "NORAD_CAT_ID": 32316, "ELEMENT_SET_NO": 999, "REV_AT_EPOCH": 95607, "BSTAR": 0.0017820841, "MEAN_MOTION_DOT": 7.123e-05, "MEAN_MOTION_DDOT": 0}, "tle": {"line1": "1 32316U 99025CXH 25335.02393167  .00007123  00000+0  17821-2 0  9992", "line2": "2 32316  99.5306 359.9291 0026789   4.9240  54.6191 14.51606127956074"}}, "geometry": {"type": "Point", "coordinates": [-15.651891288812259, 60.95805894571317]}}, {"type": "Feature", "properties": {"norad_id": 32320, "name": "FENGYUN 1C DEB", "group": "fengyun-1c-debris", "lat": 7.63570510354163, "lon": 13.304357055523488, "alt_km": 777.8285819093117, "timestamp": "2025-12-02T19:35:50.842154+00:00", "meta": {"OBJECT_NAME": "FENGYUN 1C DEB", "OBJECT_ID": "1999-025CXM", "EPOCH": "2025-12-01T19:23:39.723360", "MEAN_MOTION": 14.36057731, "ECCENTRICITY": 0.00558837, "INCLINATION": 100.3751, "RA_OF_ASC_NODE": 190.6853, "ARG_OF_PERICENTER": 78.2143, "MEAN_ANOMALY": 282.5298, "EPHEMERIS_TYPE": 0, "CLASSIFICATION_TYPE": "U", "NORAD_CAT_ID": 32320, "ELEMENT_SET_NO": 999, "REV_AT_EPOCH": 62016, "BSTAR": 0.00080169861, "MEAN_MOTION_DOT": 2.315e-05, "MEAN_MOTION_DDOT": 0}, "tle": {"line1": "1 32320U 99025CXM 25335.80809865  .00002315  00000+0  80170-3 0  9996", "line2": "2 32320 100.3751 190.6853 0055883  78.2143 282.5298 14.36057731620163"}}, "geometry": {"type": "Point", "coordinates": [13.304357055523488, 7.63570510354163]}}]}